{
  "type": "FeatureCollection",
  "features": [
    {
      "type": "Feature",
      "properties": {
        "norad_id": 30389,
        "name": "FENGYUN 1C DEB",
        "group": "fengyun-1c-debris",
        "lat": 3.169179725096544,
        "lon": -100.36979410158638,
        "alt_km": 737.0764114660224,
        "timestamp": "2025-12-23T11:34:48.439725+00:00",
        "meta_object_name": "FENGYUN 1C DEB",
        "meta_object_id": "1999-025ADC",
        "meta_epoch": "2025-12-22T17:12:11.306592",
        "meta_mean_motion": 14.44197269,
        "meta_eccentricity": 0.00146758,
        "meta_inclination": 98.8379,
        "meta_ra_of_asc_node": 78.3414,
        "meta_arg_of_pericenter": 194.6032,
        "meta_mean_anomaly": 323.3873,
        "meta_ephemeris_type": 0,
        "meta_classification_type": "U",
        "meta_norad_cat_id": 30389,
        "meta_element_set_no": 999,
        "meta_rev_at_epoch": 97930,
        "meta_bstar": 0.0023309566,
        "meta_mean_motion_dot": 7.971e-05,
        "meta_mean_motion_ddot": 0,
        "tle_line1": "1 30389U 99025ADC 25356.71679753  .00007971  00000+0  23310-2 0  9998",
        "tle_line2": "2 30389  98.8379  78.3414 0014675 194.6032 323.3873 14.44197269979308"
      },
      "geometry": {
        "type": "Point",
        "coordinates": [
          -100.36979410158638,
          3.169179725096544
        ]
      }
    },
    {
      "type": "Feature",
      "properties": {
        "norad_id": 30390,
        "name": "FENGYUN 1C DEB",
        "group": "fengyun-1c-debris",
        "lat": -5.103980430458654,
        "lon": -99.96546806463266,
        "alt_km": 765.278031220937,
        "timestamp": "2025-12-23T11:34:48.439734+00:00",
        "meta_object_name": "FENGYUN 1C DEB",
        "meta_object_id": "1999-025ADD",
        "meta_epoch": "2025-12-23T04:08:37.569120",
        "meta_mean_motion": 14.29817382,
        "meta_eccentricity": 0.0067834,
        "meta_inclination": 98.8223,
        "meta_ra_of_asc_node": 80.5155,
        "meta_arg_of_pericenter": 134.6527,
        "meta_mean_anomaly": 255.7973,
        "meta_ephemeris_type": 0,
        "meta_classification_type": "U",
        "meta_norad_cat_id": 30390,
        "meta_element_set_no": 999,
        "meta_rev_at_epoch": 97533,
        "meta_bstar": 0.0017825,
        "meta_mean_motion_dot": 4.655e-05,
        "meta_mean_motion_ddot": 0,
        "tle_line1": "1 30390U 99025ADD 25357.17265705  .00004655  00000+0  17825-2 0  9999",
        "tle_line2": "2 30390  98.8223  80.5155 0067834 134.6527 255.7973 14.29817382975339"
      },
      "geometry": {
        "type": "Point",
        "coordinates": [
          -99.96546806463266,
          -5.103980430458654
        ]
      }
    },
    {
      "type": "Feature",
      "properties": {
        "norad_id": 30391,
        "name": "FENGYUN 1C DEB",
        "group": "fengyun-1c-debris",
        "lat": -61.730212490669615,
        "lon": 60.03962701585611,
        "alt_km": 823.4954211020904,
        "timestamp": "2025-12-23T11:34:48.439743+00:00",
        "meta_object_name": "FENGYUN 1C DEB",
        "meta_object_id": "1999-025ADE",
        "meta_epoch": "2025-12-23T01:50:46.491072",
        "meta_mean_motion": 14.16281118,
        "meta_eccentricity": 0.0071909,
        "meta_inclination": 98.78,
        "meta_ra_of_asc_node": 42.9379,
        "meta_arg_of_pericenter": 232.4027,
        "meta_mean_anomaly": 157.1554,
        "meta_ephemeris_type": 0,
        "meta_classification_type": "U",
        "meta_norad_cat_id": 30391,
        "meta_element_set_no": 999,
        "meta_rev_at_epoch": 97025,
        "meta_bstar": 0.0010261,
        "meta_mean_motion_dot": 2.042e-05,
        "meta_mean_motion_ddot": 0,
        "tle_line1": "1 30391U 99025ADE 25357.07692698  .00002042  00000+0  10261-2 0  9999",
        "tle_line2": "2 30391  98.7800  42.9379 0071909 232.4027 157.1554 14.16281118970254"
      },
      "geometry": {
        "type": "Point",
        "coordinates": [
          60.03962701585611,
          -61.730212490669615
        ]
      }
    },
    {
      "type": "Feature",
      "properties": {
        "norad_id": 30392,
        "name": "FENGYUN 1C DEB",
        "group": "fengyun-1c-debris",
        "lat": -53.1240267819919,
        "lon": 27.672939807386335,
        "alt_km": 752.1214517974113,
        "timestamp": "2025-12-23T11:34:48.439752+00:00",
        "meta_object_name": "FENGYUN 1C DEB",
        "meta_object_id": "1999-025ADF",
        "meta_epoch": "2025-12-23T00:11:59.922816",
        "meta_mean_motion": 14.07476161,
        "meta_eccentricity": 0.0180554,
        "meta_inclination": 98.7851,
        "meta_ra_of_asc_node": 15.3154,
        "meta_arg_of_pericenter": 327.8903,
        "meta_mean_anomaly": 97.602,
        "meta_ephemeris_type": 0,
        "meta_classification_type": "U",
        "meta_norad_cat_id": 30392,
        "meta_element_set_no": 999,
        "meta_rev_at_epoch": 96815,
        "meta_bstar": 0.00059419,
        "meta_mean_motion_dot": 1.117e-05,
        "meta_mean_motion_ddot": 0,
        "tle_line1": "1 30392U 99025ADF 25357.00833244  .00001117  00000+0  59419-3 0  9998",
        "tle_line2": "2 30392  98.7851  15.3154 0180554 327.8903  97.6020 14.07476161968151"
      },
      "geometry": {
        "type": "Point",
        "coordinates": [
          27.672939807386335,
          -53.1240267819919
        ]
      }
    },
    {
      "type": "Feature",
      "properties": {
        "norad_id": 30393,
        "name": "FENGYUN 1C DEB",
        "group": "fengyun-1c-debris",
        "lat": 70.13474848666202,
        "lon": 28.731182017000663,
        "alt_km": 937.5923358222335,
        "timestamp": "2025-12-23T11:34:48.439760+00:00",
        "meta_object_name": "FENGYUN 1C DEB",
        "meta_object_id": "1999-025ADG",
        "meta_epoch": "2025-12-22T15:22:25.405248",
        "meta_mean_motion": 13.98991737,
        "meta_eccentricity": 0.00699352,
        "meta_inclination": 99.1641,
        "meta_ra_of_asc_node": 54.4262,
        "meta_arg_of_pericenter": 232.6689,
        "meta_mean_anomaly": 281.9878,
        "meta_ephemeris_type": 0,
        "meta_classification_type": "U",
        "meta_norad_cat_id": 30393,
        "meta_element_set_no": 999,
        "meta_rev_at_epoch": 96468,
        "meta_bstar": 0.00014670343,
        "meta_mean_motion_dot": 1.71e-06,
        "meta_mean_motion_ddot": 0,
        "tle_line1": "1 30393U 99025ADG 25356.64057182  .00000171  00000+0  14670-3 0  9996",
        "tle_line2": "2 30393  99.1641  54.4262 0069935 232.6689 281.9878 13.98991737964684"
      },
      "geometry": {
        "type": "Point",
        "coordinates": [
          28.731182017000663,
          70.13474848666202
        ]
      }
    },
    {
      "type": "Feature",
      "properties": {
        "norad_id": 30394,
        "name": "FENGYUN 1C DEB",
        "group": "fengyun-1c-debris",
        "lat": -77.2927927859626,
        "lon": 73.50120636373104,
        "alt_km": 974.3830586759623,
        "timestamp": "2025-12-23T11:34:48.439769+00:00",
        "meta_object_name": "FENGYUN 1C DEB",
        "meta_object_id": "1999-025ADH",
        "meta_epoch": "2025-12-23T01:57:07.515072",
        "meta_mean_motion": 13.9579298,
        "meta_eccentricity": 0.0089747,
        "meta_inclination": 99.4336,
        "meta_ra_of_asc_node": 25.5888,
        "meta_arg_of_pericenter": 73.6946,
        "meta_mean_anomaly": 350.5972,
        "meta_ephemeris_type": 0,
        "meta_classification_type": "U",
        "meta_norad_cat_id": 30394,
        "meta_element_set_no": 999,
        "meta_rev_at_epoch": 96248,
        "meta_bstar": 0.0002579,
        "meta_mean_motion_dot": 3.18e-06,
        "meta_mean_motion_ddot": 0,
        "tle_line1": "1 30394U 99025ADH 25357.08133698  .00000318  00000+0  25790-3 0  9991",
        "tle_line2": "2 30394  99.4336  25.5888 0089747  73.6946 350.5972 13.95792980962484"
      },
      "geometry": {
        "type": "Point",
        "coordinates": [
          73.50120636373104,
          -77.2927927859626
        ]
      }
    },
    {
      "type": "Feature",
      "properties": {
        "norad_id": 30395,
        "name": "FENGYUN 1C DEB",
        "group": "fengyun-1c-debris",
        "lat": 71.83127610792273,
        "lon": -138.6398031004647,
        "alt_km": 935.0280301693374,
        "timestamp": "2025-12-23T11:34:48.439778+00:00",
        "meta_object_name": "FENGYUN 1C DEB",
        "meta_object_id": "1999-025ADJ",
        "meta_epoch": "2025-12-23T01:03:08.130240",
        "meta_mean_motion": 13.96704998,
        "meta_eccentricity": 0.0159884,
        "meta_inclination": 98.93,
        "meta_ra_of_asc_node": 12.3076,
        "meta_arg_of_pericenter": 357.7984,
        "meta_mean_anomaly": 61.8812,
        "meta_ephemeris_type": 0,
        "meta_classification_type": "U",
        "meta_norad_cat_id": 30395,
        "meta_element_set_no": 999,
        "meta_rev_at_epoch": 96167,
        "meta_bstar": 0.00045099,
        "meta_mean_motion_dot": 6.54e-06,
        "meta_mean_motion_ddot": 0,
        "tle_line1": "1 30395U 99025ADJ 25357.04384410  .00000654  00000+0  45099-3 0  9995",
        "tle_line2": "2 30395  98.9300  12.3076 0159884 357.7984  61.8812 13.96704998961679"
      },
      "geometry": {
        "type": "Point",
        "coordinates": [
          -138.6398031004647,
          71.83127610792273
        ]
      }
    }
  ]
}